QIANFAN-17              
1 60395U 24140S   26017.28478542  .00000139  00000+0  19701-3 0  9993
2 60395  88.9791 295.7654 0016578 100.1128 260.1894 13.50985990 72935
QIANFAN-18              
1 60396U 24140T   26017.26419290  .00000130  00000+0  18223-3 0  9996
2 60396  88.9783 295.2986 0016084  84.5460 275.7525 13.50985962 72321
QIANFAN-19              
1 61552U 24185A   26017.24295594  .00000407  00000+0  20576-3 0  9998
2 61552  88.9788  73.8756 0007181 172.7715 187.3576 14.14334721 74684
QIANFAN-20              
1 61553U 24185B   26017.27072750  .00000269  00000+0  14767-3 0  9990
2 61553  88.9788  74.2322 0004735 211.4451 148.6450 14.08881466 74495
QIANFAN-21              
1 61554U 24185C   26017.27070752  .00000486  00000+0  21091-3 0  9990
2 61554  88.9703  72.8199 0008714 240.1863 119.8463 14.22659141 75029
QIANFAN-22              
1 61555U 24185D   26017.22931181  .00000222  00000+0  18041-3 0  9997
2 61555  88.9772  75.3608 0004760 234.8907 125.1818 13.86317433 73852
QIANFAN-23              
1 61556U 24185E   26017.23901534  .00000444  00000+0  21692-3 0  9990
2 61556  88.9780  73.6689 0007427 185.2039 174.9073 14.16330216 74775
QIANFAN-24              
1 61557U 24185F   26017.24345241  .00000300  00000+0  12484-3 0  9999
2 61557  88.9762  73.0152 0009884 169.2864 190.8541 14.23860301 75074
